NORAD_CAT_ID,OBJECT_NAME,OBJECT_TYPE,EPOCH,MEAN_MOTION,ECCENTRICITY,INCLINATION,RA_OF_ASC_NODE,ARG_OF_PERICENTER,MEAN_ANOMALY,BSTAR,MEAN_MOTION_DOT,MEAN_MOTION_DDOT,TLE_LINE0,TLE_LINE1,TLE_LINE2,SEMIMAJOR_AXIS,PERIOD,APOGEE,PERIGEE,DECAYED
51984.0,STARLINK-3664,PAYLOAD,2023-10-17 22:25:44,15.08849261,0.0001527,53.2165,1.564,90.22,269.8967,0.00022781,3.34e-05,0.0,0 STARLINK-3664,1 51984U 22025AE  23290.93453874  .00003340  00000-0  22781-3 0  9990,2 51984  53.2165   1.5640 0001527  90.2200 269.8967 15.08849261 89159,6917.852,95.437,540.773,538.661,0.0
51984.0,STARLINK-3664,PAYLOAD,2023-10-18 11:08:49,15.08846341,0.0001786,53.2182,359.1838,96.7461,263.3735,6.6162e-05,7.65e-06,0.0,0 STARLINK-3664,1 51984U 22025AE  23291.46445927  .00000765  00000-0  66162-4 0  9999,2 51984  53.2182 359.1838 0001786  96.7461 263.3735 15.08846341 90336,6917.861,95.437,540.962,538.49,0.0
51984.0,STARLINK-3664,PAYLOAD,2023-10-18 14:19:35,15.08849218,0.0001787,53.2177,358.5881,100.1649,259.9544,0.00014657,2.046e-05,0.0,0 STARLINK-3664,1 51984U 22025AE  23291.59693775  .00002046  00000-0  14657-3 0  9994,2 51984  53.2177 358.5881 0001787 100.1649 259.9544 15.08849218 89254,6917.852,95.437,540.953,538.481,0.0
51984.0,STARLINK-3664,PAYLOAD,2023-10-19 10:59:36,15.08850309,0.0001889,53.2174,354.7199,105.7829,254.3372,0.00027212,4.047e-05,0.0,0 STARLINK-3664,1 51984U 22025AE  23292.45805718  .00004047  00000-0  27212-3 0  9996,2 51984  53.2174 354.7199 0001889 105.7829 254.3372 15.08850309 89380,6917.849,95.437,541.021,538.407,0.0
51984.0,STARLINK-3664,PAYLOAD,2023-10-20 10:50:23,15.08835338,0.0001817,53.2177,350.2614,115.7756,244.3424,-2.9632e-05,-7.6e-06,0.0,0 STARLINK-3664,1 51984U 22025AE  23293.45166222 -.00000760  00000-0 -29632-4 0  9996,2 51984  53.2177 350.2614 0001817 115.7756 244.3424 15.08835338 90639,6917.895,95.438,541.017,538.503,0.0
51984.0,STARLINK-3664,PAYLOAD,2023-10-20 14:01:09,15.08836566,0.0001597,53.217,349.6655,104.3648,255.7522,2.0168e-06,-2.56e-06,0.0,0 STARLINK-3664,1 51984U 22025AE  23293.58414347 -.00000256  00000-0  20168-5 0  9999,2 51984  53.2170 349.6655 0001597 104.3648 255.7522 15.08836566 89556,6917.891,95.438,540.861,538.651,0.0
51984.0,STARLINK-3664,PAYLOAD,2023-10-21 10:41:10,15.08843998,0.0001552,53.2176,345.8042,94.1563,265.9607,7.1463e-05,8.5e-06,0.0,0 STARLINK-3664,1 51984U 22025AE  23294.44526269  .00000850  00000-0  71463-4 0  9994,2 51984  53.2176 345.8042 0001552  94.1563 265.9607 15.08843998 89681,6917.868,95.437,540.807,538.66,0.0
51984.0,STARLINK-3664,PAYLOAD,2023-10-21 20:13:29,15.08844062,0.0001528,53.2177,344.0197,94.0413,266.0754,0.00013821,1.913e-05,0.0,0 STARLINK-3664,1 51984U 22025AE  23294.84270287  .00001913  00000-0  13821-3 0  9998,2 51984  53.2177 344.0197 0001528  94.0413 266.0754 15.08844062 89745,6917.868,95.437,540.79,538.676,0.0
51984.0,STARLINK-3664,PAYLOAD,2023-10-22 02:35:02,15.0884096,0.0001591,53.2183,342.8324,94.1113,266.0062,0.00023204,3.407e-05,0.0,0 STARLINK-3664,1 51984U 22025AE  23295.10766691  .00003407  00000-0  23204-3 0  9993,2 51984  53.2183 342.8324 0001591  94.1113 266.0062 15.08840960 90880,6917.877,95.437,540.843,538.642,0.0
51984.0,STARLINK-3664,PAYLOAD,2023-10-22 10:31:58,15.08837365,0.0001596,53.2189,341.3442,94.6495,265.468,0.00013189,1.811e-05,0.0,0 STARLINK-3664,1 51984U 22025AE  23295.43886901  .00001811  00000-0  13189-3 0  9994,2 51984  53.2189 341.3442 0001596  94.6495 265.4680 15.08837365 89831,6917.888,95.438,540.858,538.649,0.0
51984.0,STARLINK-3664,PAYLOAD,2023-10-22 20:04:17,15.08836237,0.000179,53.2186,339.5585,81.5458,278.5737,2.0504e-05,3.8e-07,0.0,0 STARLINK-3664,1 51984U 22025AE  23295.83631076  .00000038  00000-0  20504-4 0  9999,2 51984  53.2186 339.5585 0001790  81.5458 278.5737 15.08836237 89896,6917.892,95.438,540.995,538.519,0.0
51984.0,STARLINK-3664,PAYLOAD,2023-10-23 19:55:04,15.08842037,0.0001599,53.2183,335.0976,83.1335,276.9839,-3.6563e-05,-8.7e-06,0.0,0 STARLINK-3664,1 51984U 22025AE  23296.82991474 -.00000870  00000-0 -36563-4 0  9998,2 51984  53.2183 335.0976 0001599  83.1335 276.9839 15.08842037 90046,6917.874,95.437,540.845,538.633,0.0
51984.0,STARLINK-3664,PAYLOAD,2023-10-24 02:16:37,15.0882749,0.0001637,53.2175,333.9078,80.7322,279.3855,0.0001796,2.571e-05,0.0,0 STARLINK-3664,1 51984U 22025AE  23297.09488032  .00002571  00000-0  17960-3 0  9996,2 51984  53.2175 333.9078 0001637  80.7322 279.3855 15.08827490 91186,6917.919,95.438,540.916,538.651,0.0
51984.0,STARLINK-3664,PAYLOAD,2023-10-24 10:13:32,15.08838492,0.0001464,53.2172,332.4215,81.7311,278.3848,7.7899e-05,9.52e-06,0.0,0 STARLINK-3664,1 51984U 22025AE  23297.42607611  .00000952  00000-0  77899-4 0  9998,2 51984  53.2172 332.4215 0001464  81.7311 278.3848 15.08838492 91238,6917.885,95.438,540.763,538.737,0.0
51984.0,STARLINK-3664,PAYLOAD,2023-10-25 08:28:56,15.08847801,0.000157,53.217,328.2591,79.5806,280.5363,0.00015335,2.154e-05,0.0,0 STARLINK-3664,1 51984U 22025AE  23298.35342870  .00002154  00000-0  15335-3 0  9996,2 51984  53.2170 328.2591 0001570  79.5806 280.5363 15.08847801 91374,6917.857,95.437,540.808,538.635,0.0
51984.0,STARLINK-3664,PAYLOAD,2023-10-26 01:58:11,15.08841011,0.0001763,53.2181,324.9895,76.4944,283.6245,0.00010287,1.35e-05,0.0,0 STARLINK-3664,1 51984U 22025AE  23299.08207350  .00001350  00000-0  10287-3 0  9998,2 51984  53.2181 324.9895 0001763  76.4944 283.6245 15.08841011 91481,6917.877,95.437,540.962,538.523,0.0
51984.0,STARLINK-3664,PAYLOAD,2023-10-26 11:30:29,15.08843841,0.000161,53.2173,323.2019,97.7836,262.3339,0.00011149,1.487e-05,0.0,0 STARLINK-3664,1 51984U 22025AE  23299.47950861  .00001487  00000-0  11149-3 0  9992,2 51984  53.2173 323.2019 0001610  97.7836 262.3339 15.08843841 90445,6917.869,95.437,540.847,538.62,0.0
51984.0,STARLINK-3664,PAYLOAD,2023-10-27 04:59:45,15.0879916,0.0001423,53.2167,319.9304,109.4616,250.653,0.00070365,0.00010916,0.0,0 STARLINK-3664,1 51984U 22025AE  23300.20816361  .00010916  00000-0  70365-3 0  9994,2 51984  53.2167 319.9304 0001423 109.4616 250.6530 15.08799160 91657,6918.005,95.44,540.855,538.886,0.0
51984.0,STARLINK-3664,PAYLOAD,2023-10-27 08:10:29,15.08851555,0.0001629,53.2173,319.3356,97.2505,262.8673,2.0881e-05,4.4e-07,0.0,0 STARLINK-3664,1 51984U 22025AE  23300.34062334  .00000044  00000-0  20881-4 0  9992,2 51984  53.2173 319.3356 0001629  97.2505 262.8673 15.08851555 91676,6917.845,95.437,540.837,538.583,0.0
51984.0,STARLINK-3664,PAYLOAD,2023-10-28 08:01:17,15.08838458,0.000154,53.2172,314.8751,94.8697,265.2471,-2.218e-07,-2.92e-06,0.0,0 STARLINK-3664,1 51984U 22025AE  23301.33423308 -.00000292  00000-0 -22180-6 0  9997,2 51984  53.2172 314.8751 0001540  94.8697 265.2471 15.08838458 91828,6917.885,95.438,540.815,538.685,0.0
51984.0,STARLINK-3664,PAYLOAD,2023-10-28 17:33:36,15.08837798,0.0001567,53.2173,313.0909,91.9737,268.1434,1.1292e-05,-1.08e-06,0.0,0 STARLINK-3664,1 51984U 22025AE  23301.73167425 -.00000108  00000-0  11292-4 0  9991,2 51984  53.2173 313.0909 0001567  91.9737 268.1434 15.08837798 90788,6917.887,95.438,540.836,538.668,0.0
51984.0,STARLINK-3664,PAYLOAD,2023-10-29 07:52:04,15.08846394,0.0001651,53.2178,310.4182,105.901,254.2164,3.8246e-05,3.21e-06,0.0,0 STARLINK-3664,1 51984U 22025AE  23302.32783062  .00000321  00000-0  38246-4 0  9992,2 51984  53.2178 310.4182 0001651 105.9010 254.2164 15.08846394 90879,6917.861,95.437,540.868,538.584,0.0
51984.0,STARLINK-3664,PAYLOAD,2023-10-29 17:24:23,15.08842355,0.0001645,53.2182,308.6343,101.3033,258.8144,3.2e-05,2.21e-06,0.0,0 STARLINK-3664,1 51984U 22025AE  23302.72527292  .00000221  00000-0  32000-4 0  9998,2 51984  53.2182 308.6343 0001645 101.3033 258.8144 15.08842355 92031,6917.873,95.437,540.876,538.6,0.0
51984.0,STARLINK-3664,PAYLOAD,2023-10-30 04:32:06,15.0883179,0.0001953,53.2188,306.5525,109.4412,250.6792,7.0951e-05,8.41e-06,0.0,0 STARLINK-3664,1 51984U 22025AE  23303.18896233  .00000841  00000-0  70951-4 0  9998,2 51984  53.2188 306.5525 0001953 109.4412 250.6792 15.08831790 92106,6917.905,95.438,541.122,538.419,0.0
51984.0,STARLINK-3664,PAYLOAD,2023-10-30 07:42:52,15.08831198,0.0001849,53.2183,305.9554,102.5545,257.5654,5.9351e-05,6.56e-06,0.0,0 STARLINK-3664,1 51984U 22025AE  23303.32144375  .00000656  00000-0  59351-4 0  9992,2 51984  53.2183 305.9554 0001849 102.5545 257.5654 15.08831198 91026,6917.907,95.438,541.051,538.493,0.0
51984.0,STARLINK-3664,PAYLOAD,2023-10-31 09:09:02,15.08839284,0.0001633,53.2174,301.1981,88.6986,271.4193,4.7586e-05,4.69e-06,0.0,0 STARLINK-3664,1 51984U 22025AE  23304.38128432  .00000469  00000-0  47586-4 0  9994,2 51984  53.2174 301.1981 0001633  88.6986 271.4193 15.08839284 92288,6917.883,95.438,540.877,538.618,0.0
51984.0,STARLINK-3664,PAYLOAD,2023-10-31 17:05:58,15.08840895,0.0001485,53.2171,299.7096,90.5471,269.5692,7.4968e-05,9.05e-06,0.0,0 STARLINK-3664,1 51984U 22025AE  23304.71248229  .00000905  00000-0  74968-4 0  9997,2 51984  53.2171 299.7096 0001485  90.5471 269.5692 15.08840895 91236,6917.878,95.437,540.77,538.715,0.0
51984.0,STARLINK-3664,PAYLOAD,2023-11-01 04:13:40,15.08823535,0.0001522,53.2174,297.6269,89.8568,270.2599,0.00045949,7.029e-05,0.0,0 STARLINK-3664,1 51984U 22025AE  23305.17616805  .00007029  00000-0  45949-3 0  9997,2 51984  53.2174 297.6269 0001522  89.8568 270.2599 15.08823535 92405,6917.931,95.439,540.849,538.743,0.0
51984.0,STARLINK-3664,PAYLOAD,2023-11-01 08:59:49,15.088507,0.000155,53.2168,296.7351,94.7571,265.3598,0.00022261,3.258e-05,0.0,0 STARLINK-3664,1 51984U 22025AE  23305.37487461  .00003258  00000-0  22261-3 0  9995,2 51984  53.2168 296.7351 0001550  94.7571 265.3598 15.08850700 92431,6917.848,95.437,540.785,538.64,0.0
51984.0,STARLINK-3664,PAYLOAD,2023-11-01 16:56:45,15.08842448,0.0001512,53.2168,295.2476,99.2859,260.8305,0.00015334,2.153e-05,0.0,0 STARLINK-3664,1 51984U 22025AE  23305.70608070  .00002153  00000-0  15334-3 0  9999,2 51984  53.2168 295.2476 0001512  99.2859 260.8305 15.08842448 92481,6917.873,95.437,540.784,538.692,0.0
